<?xml version="1.0" encoding="UTF-8"?>
<ndm xmlns:xsi="http://www.w3.org/2001/XMLSchema-instance" xsi:noNamespaceSchemaLocation="https://sanaregistry.org/r/ndmxml_unqualified/ndmxml-2.0.0-master-2.0.xsd">
<omm id="CCSDS_OMM_VERS" version="2.0">
<header><CREATION_DATE/><ORIGINATOR/></header><body><segment><metadata><OBJECT_NAME>ORBCOMM FM33</OBJECT_NAME><OBJECT_ID>1999-065D</OBJECT_ID><CENTER_NAME>EARTH</CENTER_NAME><REF_FRAME>TEME</REF_FRAME><TIME_SYSTEM>UTC</TIME_SYSTEM><MEAN_ELEMENT_THEORY>SGP4</MEAN_ELEMENT_THEORY></metadata><data><meanElements><EPOCH>2024-07-26T04:07:57.544320</EPOCH><MEAN_MOTION>14.38004756</MEAN_MOTION><ECCENTRICITY>.0007828</ECCENTRICITY><INCLINATION>45.0285</INCLINATION><RA_OF_ASC_NODE>106.7792</RA_OF_ASC_NODE><ARG_OF_PERICENTER>223.7624</ARG_OF_PERICENTER><MEAN_ANOMALY>136.2604</MEAN_ANOMALY></meanElements><tleParameters><EPHEMERIS_TYPE>0</EPHEMERIS_TYPE><CLASSIFICATION_TYPE>U</CLASSIFICATION_TYPE><NORAD_CAT_ID>25983</NORAD_CAT_ID><ELEMENT_SET_NO>999</ELEMENT_SET_NO><REV_AT_EPOCH>28917</REV_AT_EPOCH><BSTAR>.69982E-3</BSTAR><MEAN_MOTION_DOT>.1995E-4</MEAN_MOTION_DOT><MEAN_MOTION_DDOT>0</MEAN_MOTION_DDOT></tleParameters></data></segment></body></omm>
<omm id="CCSDS_OMM_VERS" version="2.0">
<header><CREATION_DATE/><ORIGINATOR/></header><body><segment><metadata><OBJECT_NAME>ORBCOMM FM36</OBJECT_NAME><OBJECT_ID>1999-065E</OBJECT_ID><CENTER_NAME>EARTH</CENTER_NAME><REF_FRAME>TEME</REF_FRAME><TIME_SYSTEM>UTC</TIME_SYSTEM><MEAN_ELEMENT_THEORY>SGP4</MEAN_ELEMENT_THEORY></metadata><data><meanElements><EPOCH>2024-07-26T11:06:34.101216</EPOCH><MEAN_MOTION>14.35914934</MEAN_MOTION><ECCENTRICITY>.0001747</ECCENTRICITY><INCLINATION>45.0377</INCLINATION><RA_OF_ASC_NODE>192.2085</RA_OF_ASC_NODE><ARG_OF_PERICENTER>63.3151</ARG_OF_PERICENTER><MEAN_ANOMALY>296.7875</MEAN_ANOMALY></meanElements><tleParameters><EPHEMERIS_TYPE>0</EPHEMERIS_TYPE><CLASSIFICATION_TYPE>U</CLASSIFICATION_TYPE><NORAD_CAT_ID>25984</NORAD_CAT_ID><ELEMENT_SET_NO>999</ELEMENT_SET_NO><REV_AT_EPOCH>28815</REV_AT_EPOCH><BSTAR>.70542E-3</BSTAR><MEAN_MOTION_DOT>.1923E-4</MEAN_MOTION_DOT><MEAN_MOTION_DDOT>0</MEAN_MOTION_DDOT></tleParameters></data></segment></body></omm>
<omm id="CCSDS_OMM_VERS" version="2.0">
<header><CREATION_DATE/><ORIGINATOR/></header><body><segment><metadata><OBJECT_NAME>ORBCOMM FM35</OBJECT_NAME><OBJECT_ID>1999-065F</OBJECT_ID><CENTER_NAME>EARTH</CENTER_NAME><REF_FRAME>TEME</REF_FRAME><TIME_SYSTEM>UTC</TIME_SYSTEM><MEAN_ELEMENT_THEORY>SGP4</MEAN_ELEMENT_THEORY></metadata><data><meanElements><EPOCH>2024-07-25T08:19:13.539936</EPOCH><MEAN_MOTION>14.35400898</MEAN_MOTION><ECCENTRICITY>.000363</ECCENTRICITY><INCLINATION>45.0383</INCLINATION><RA_OF_ASC_NODE>200.3995</RA_OF_ASC_NODE><ARG_OF_PERICENTER>237.5815</ARG_OF_PERICENTER><MEAN_ANOMALY>122.4682</MEAN_ANOMALY></meanElements><tleParameters><EPHEMERIS_TYPE>0</EPHEMERIS_TYPE><CLASSIFICATION_TYPE>U</CLASSIFICATION_TYPE><NORAD_CAT_ID>25985</NORAD_CAT_ID><ELEMENT_SET_NO>999</ELEMENT_SET_NO><REV_AT_EPOCH>28779</REV_AT_EPOCH><BSTAR>.59692E-3</BSTAR><MEAN_MOTION_DOT>.1588E-4</MEAN_MOTION_DOT><MEAN_MOTION_DDOT>0</MEAN_MOTION_DDOT></tleParameters></data></segment></body></omm>
<omm id="CCSDS_OMM_VERS" version="2.0">
<header><CREATION_DATE/><ORIGINATOR/></header><body><segment><metadata><OBJECT_NAME>ORBCOMM FM34</OBJECT_NAME><OBJECT_ID>1999-065G</OBJECT_ID><CENTER_NAME>EARTH</CENTER_NAME><REF_FRAME>TEME</REF_FRAME><TIME_SYSTEM>UTC</TIME_SYSTEM><MEAN_ELEMENT_THEORY>SGP4</MEAN_ELEMENT_THEORY></metadata><data><meanElements><EPOCH>2024-07-26T07:01:53.343264</EPOCH><MEAN_MOTION>14.35383369</MEAN_MOTION><ECCENTRICITY>.0001915</ECCENTRICITY><INCLINATION>45.0379</INCLINATION><RA_OF_ASC_NODE>196.4824</RA_OF_ASC_NODE><ARG_OF_PERICENTER>179.2352</ARG_OF_PERICENTER><MEAN_ANOMALY>180.8499</MEAN_ANOMALY></meanElements><tleParameters><EPHEMERIS_TYPE>0</EPHEMERIS_TYPE><CLASSIFICATION_TYPE>U</CLASSIFICATION_TYPE><NORAD_CAT_ID>25986</NORAD_CAT_ID><ELEMENT_SET_NO>999</ELEMENT_SET_NO><REV_AT_EPOCH>28808</REV_AT_EPOCH><BSTAR>.5867E-3</BSTAR><MEAN_MOTION_DOT>.1558E-4</MEAN_MOTION_DOT><MEAN_MOTION_DDOT>0</MEAN_MOTION_DDOT></tleParameters></data></segment></body></omm>
<omm id="CCSDS_OMM_VERS" version="2.0">
<header><CREATION_DATE/><ORIGINATOR/></header><body><segment><metadata><OBJECT_NAME>ORBCOMM FM38</OBJECT_NAME><OBJECT_ID>2008-031A</OBJECT_ID><CENTER_NAME>EARTH</CENTER_NAME><REF_FRAME>TEME</REF_FRAME><TIME_SYSTEM>UTC</TIME_SYSTEM><MEAN_ELEMENT_THEORY>SGP4</MEAN_ELEMENT_THEORY></metadata><data><meanElements><EPOCH>2024-07-25T21:39:09.946080</EPOCH><MEAN_MOTION>14.78051479</MEAN_MOTION><ECCENTRICITY>.000504</ECCENTRICITY><INCLINATION>48.4414</INCLINATION><RA_OF_ASC_NODE>66.7420</RA_OF_ASC_NODE><ARG_OF_PERICENTER>84.2281</ARG_OF_PERICENTER><MEAN_ANOMALY>275.9207</MEAN_ANOMALY></meanElements><tleParameters><EPHEMERIS_TYPE>0</EPHEMERIS_TYPE><CLASSIFICATION_TYPE>U</CLASSIFICATION_TYPE><NORAD_CAT_ID>33060</NORAD_CAT_ID><ELEMENT_SET_NO>999</ELEMENT_SET_NO><REV_AT_EPOCH>86642</REV_AT_EPOCH><BSTAR>.43143E-3</BSTAR><MEAN_MOTION_DOT>.2942E-4</MEAN_MOTION_DOT><MEAN_MOTION_DDOT>0</MEAN_MOTION_DDOT></tleParameters></data></segment></body></omm>
<omm id="CCSDS_OMM_VERS" version="2.0">
<header><CREATION_DATE/><ORIGINATOR/></header><body><segment><metadata><OBJECT_NAME>ORBCOMM FM41</OBJECT_NAME><OBJECT_ID>2008-031B</OBJECT_ID><CENTER_NAME>EARTH</CENTER_NAME><REF_FRAME>TEME</REF_FRAME><TIME_SYSTEM>UTC</TIME_SYSTEM><MEAN_ELEMENT_THEORY>SGP4</MEAN_ELEMENT_THEORY></metadata><data><meanElements><EPOCH>2024-07-25T22:01:17.475168</EPOCH><MEAN_MOTION>14.77773296</MEAN_MOTION><ECCENTRICITY>.0004195</ECCENTRICITY><INCLINATION>48.4449</INCLINATION><RA_OF_ASC_NODE>73.4718</RA_OF_ASC_NODE><ARG_OF_PERICENTER>69.1008</ARG_OF_PERICENTER><MEAN_ANOMALY>53.9355</MEAN_ANOMALY></meanElements><tleParameters><EPHEMERIS_TYPE>0</EPHEMERIS_TYPE><CLASSIFICATION_TYPE>U</CLASSIFICATION_TYPE><NORAD_CAT_ID>33061</NORAD_CAT_ID><ELEMENT_SET_NO>999</ELEMENT_SET_NO><REV_AT_EPOCH>86592</REV_AT_EPOCH><BSTAR>.41823E-3</BSTAR><MEAN_MOTION_DOT>.2826E-4</MEAN_MOTION_DOT><MEAN_MOTION_DDOT>0</MEAN_MOTION_DDOT></tleParameters></data></segment></body></omm>
<omm id="CCSDS_OMM_VERS" version="2.0">
<header><CREATION_DATE/><ORIGINATOR/></header><body><segment><metadata><OBJECT_NAME>ORBCOMM FM29</OBJECT_NAME><OBJECT_ID>2008-031C</OBJECT_ID><CENTER_NAME>EARTH</CENTER_NAME><REF_FRAME>TEME</REF_FRAME><TIME_SYSTEM>UTC</TIME_SYSTEM><MEAN_ELEMENT_THEORY>SGP4</MEAN_ELEMENT_THEORY></metadata><data><meanElements><EPOCH>2024-07-25T21:34:15.220128</EPOCH><MEAN_MOTION>14.77724713</MEAN_MOTION><ECCENTRICITY>.0006072</ECCENTRICITY><INCLINATION>48.4399</INCLINATION><RA_OF_ASC_NODE>81.5954</RA_OF_ASC_NODE><ARG_OF_PERICENTER>66.0793</ARG_OF_PERICENTER><MEAN_ANOMALY>3.0367</MEAN_ANOMALY></meanElements><tleParameters><EPHEMERIS_TYPE>0</EPHEMERIS_TYPE><CLASSIFICATION_TYPE>U</CLASSIFICATION_TYPE><NORAD_CAT_ID>33062</NORAD_CAT_ID><ELEMENT_SET_NO>999</ELEMENT_SET_NO><REV_AT_EPOCH>86583</REV_AT_EPOCH><BSTAR>.43807E-3</BSTAR><MEAN_MOTION_DOT>.2967E-4</MEAN_MOTION_DOT><MEAN_MOTION_DDOT>0</MEAN_MOTION_DDOT></tleParameters></data></segment></body></omm>
<omm id="CCSDS_OMM_VERS" version="2.0">
<header><CREATION_DATE/><ORIGINATOR/></header><body><segment><metadata><OBJECT_NAME>ORBCOMM FM39</OBJECT_NAME><OBJECT_ID>2008-031D</OBJECT_ID><CENTER_NAME>EARTH</CENTER_NAME><REF_FRAME>TEME</REF_FRAME><TIME_SYSTEM>UTC</TIME_SYSTEM><MEAN_ELEMENT_THEORY>SGP4</MEAN_ELEMENT_THEORY></metadata><data><meanElements><EPOCH>2024-07-25T20:05:23.324928</EPOCH><MEAN_MOTION>14.76658441</MEAN_MOTION><ECCENTRICITY>.0007109</ECCENTRICITY><INCLINATION>48.4408</INCLINATION><RA_OF_ASC_NODE>103.0010</RA_OF_ASC_NODE><ARG_OF_PERICENTER>38.4422</ARG_OF_PERICENTER><MEAN_ANOMALY>321.6997</MEAN_ANOMALY></meanElements><tleParameters><EPHEMERIS_TYPE>0</EPHEMERIS_TYPE><CLASSIFICATION_TYPE>U</CLASSIFICATION_TYPE><NORAD_CAT_ID>33063</NORAD_CAT_ID><ELEMENT_SET_NO>999</ELEMENT_SET_NO><REV_AT_EPOCH>86551</REV_AT_EPOCH><BSTAR>.38724E-3</BSTAR><MEAN_MOTION_DOT>.253E-4</MEAN_MOTION_DOT><MEAN_MOTION_DDOT>0</MEAN_MOTION_DDOT></tleParameters></data></segment></body></omm>

</ndm>
