ORBCOMM FM33            
1 25983U 99065D   24208.17219380  .00001995  00000+0  69982-3 0  9993
2 25983  45.0285 106.7792 0007828 223.7624 136.2604 14.38004756289173
ORBCOMM FM36            
1 25984U 99065E   24208.46289469  .00001923  00000+0  70542-3 0  9996
2 25984  45.0377 192.2085 0001747  63.3151 296.7875 14.35914934288152
ORBCOMM FM35            
1 25985U 99065F   24207.34668449  .00001588  00000+0  59692-3 0  9992
2 25985  45.0383 200.3995 0003630 237.5815 122.4682 14.35400898287795
ORBCOMM FM34            
1 25986U 99065G   24208.29297851  .00001558  00000+0  58670-3 0  9995
2 25986  45.0379 196.4824 0001915 179.2352 180.8499 14.35383369288089
ORBCOMM FM38            
1 33060U 08031A   24207.90219845  .00002942  00000+0  43143-3 0  9991
2 33060  48.4414  66.7420 0005040  84.2281 275.9207 14.78051479866422
ORBCOMM FM41            
1 33061U 08031B   24207.91756337  .00002826  00000+0  41823-3 0  9999
2 33061  48.4449  73.4718 0004195  69.1008  53.9355 14.77773296865924
ORBCOMM FM29            
1 33062U 08031C   24207.89878727  .00002967  00000+0  43807-3 0  9995
2 33062  48.4399  81.5954 0006072  66.0793   3.0367 14.77724713865833
ORBCOMM FM39            
1 33063U 08031D   24207.83707552  .00002530  00000+0  38724-3 0  9995
2 33063  48.4408 103.0010 0007109  38.4422 321.6997 14.76658441865518
